STARLINK - 2019-029BD              
1 44286U 19029BD  19146.90878976  .00002274  00000-0  60581-4 0  9999
2 44286  53.0007 161.9971 0006080 275.1226 212.4487 15.42759096  1607